start=new Date('2023-04-17T00:00:00.000Z').valueOf();
sats=[{"GP_ID":"230196643","SEMIMAJOR_AXIS":"6925.412","BSTAR":"0.00140260000000","TLE_LINE2":"2 47902  53.0552 350.2028 0001111 122.1846 237.9251 15.06379248116723","TLE_LINE1":"1 47902U 21021AU  23106.90351364  .00020660  00000-0  14026-2 0  9990","MEAN_MOTION_DDOT":"0.0000000000000","INCLINATION":"53.0552","PERIAPSIS":"546.508","OBJECT_TYPE":"PAYLOAD","FILE":"3888799","CENTER_NAME":"EARTH","ELEMENT_SET_NO":"999","RCS_SIZE":"LARGE","OBJECT_ID":"2021-021AU","PERIOD":"95.593","MEAN_ANOMALY":"237.9251","ECCENTRICITY":"0.00011110","EPOCH":"2023-04-16T21:41:03.578496","EPHEMERIS_TYPE":"0","ARG_OF_PERICENTER":"122.1846","TIME_SYSTEM":"UTC","REF_FRAME":"TEME","RA_OF_ASC_NODE":"350.2028","MEAN_ELEMENT_THEORY":"SGP4","NORAD_CAT_ID":"47902","REV_AT_EPOCH":"11672","OBJECT_NAME":"STARLINK-2362","COUNTRY_CODE":"US","DECAY_DATE":null,"MEAN_MOTION":"15.06379248","APOAPSIS":"548.047","SITE":"AFETR","MEAN_MOTION_DOT":"0.00020660","CLASSIFICATION_TYPE":"U","LAUNCH_DATE":"2021-03-14"},{"TLE_LINE1":"1 47903U 21021AV  23106.86017044  .00017743  00000-0  12076-2 0  9991","TLE_LINE2":"2 47903  53.0545 330.3877 0000991  66.5633 293.5460 15.06383812117236","BSTAR":"0.00120760000000","SEMIMAJOR_AXIS":"6925.398","GP_ID":"230196890","ARG_OF_PERICENTER":"66.5633","TIME_SYSTEM":"UTC","EPHEMERIS_TYPE":"0","PERIOD":"95.593","ECCENTRICITY":"0.00009910","MEAN_ANOMALY":"293.5460","EPOCH":"2023-04-16T20:38:38.726016","OBJECT_ID":"2021-021AV","RCS_SIZE":"LARGE","ELEMENT_SET_NO":"999","CENTER_NAME":"EARTH","FILE":"3888799","PERIAPSIS":"546.577","OBJECT_TYPE":"PAYLOAD","INCLINATION":"53.0545","MEAN_MOTION_DDOT":"0.0000000000000","DECAY_DATE":null,"OBJECT_NAME":"STARLINK-2363","COUNTRY_CODE":"US","NORAD_CAT_ID":"47903","REV_AT_EPOCH":"11723","MEAN_ELEMENT_THEORY":"SGP4","RA_OF_ASC_NODE":"330.3877","REF_FRAME":"TEME","LAUNCH_DATE":"2021-03-14","CLASSIFICATION_TYPE":"U","MEAN_MOTION_DOT":"0.00017743","SITE":"AFETR","APOAPSIS":"547.949","MEAN_MOTION":"15.06383812"},{"MEAN_MOTION_DOT":"0.00003464","CLASSIFICATION_TYPE":"U","LAUNCH_DATE":"2021-03-14","MEAN_MOTION":"15.06359794","APOAPSIS":"547.670","SITE":"AFETR","COUNTRY_CODE":"US","OBJECT_NAME":"STARLINK-2364","DECAY_DATE":null,"REF_FRAME":"TEME","RA_OF_ASC_NODE":"330.4104","MEAN_ELEMENT_THEORY":"SGP4","REV_AT_EPOCH":"11687","NORAD_CAT_ID":"47904","OBJECT_ID":"2021-021AW","EPOCH":"2023-04-16T20:34:41.240064","PERIOD":"95.595","MEAN_ANOMALY":"316.5442","ECCENTRICITY":"0.00004810","EPHEMERIS_TYPE":"0","ARG_OF_PERICENTER":"43.5585","TIME_SYSTEM":"UTC","INCLINATION":"53.0541","MEAN_MOTION_DDOT":"0.0000000000000","OBJECT_TYPE":"PAYLOAD","PERIAPSIS":"547.004","ELEMENT_SET_NO":"999","RCS_SIZE":"LARGE","FILE":"3888799","CENTER_NAME":"EARTH","TLE_LINE2":"2 47904  53.0541 330.4104 0000481  43.5585 316.5442 15.06359794116879","TLE_LINE1":"1 47904U 21021AW  23106.85742176  .00003464  00000-0  25154-3 0  9999","GP_ID":"230197144","SEMIMAJOR_AXIS":"6925.472","BSTAR":"0.00025154000000"},{"TLE_LINE2":"2 47905  53.0546 330.4206 0000640 126.2174 233.8874 15.06384449117009","TLE_LINE1":"1 47905U 21021AX  23106.85280060  .00017008  00000-0  11584-2 0  9999","SEMIMAJOR_AXIS":"6925.396","BSTAR":"0.00115840000000","GP_ID":"230197856","EPHEMERIS_TYPE":"0","ARG_OF_PERICENTER":"126.2174","TIME_SYSTEM":"UTC","OBJECT_ID":"2021-021AX","ECCENTRICITY":"0.00006400","PERIOD":"95.593","MEAN_ANOMALY":"233.8874","EPOCH":"2023-04-16T20:28:01.971840","OBJECT_TYPE":"PAYLOAD","PERIAPSIS":"546.818","FILE":"3888799","CENTER_NAME":"EARTH","RCS_SIZE":"LARGE","ELEMENT_SET_NO":"999","MEAN_MOTION_DDOT":"0.0000000000000","INCLINATION":"53.0546","DECAY_DATE":null,"OBJECT_NAME":"STARLINK-2365","COUNTRY_CODE":"US","MEAN_ELEMENT_THEORY":"SGP4","REV_AT_EPOCH":"11700","NORAD_CAT_ID":"47905","REF_FRAME":"TEME","RA_OF_ASC_NODE":"330.4206","CLASSIFICATION_TYPE":"U","LAUNCH_DATE":"2021-03-14","MEAN_MOTION_DOT":"0.00017008","APOAPSIS":"547.704","SITE":"AFETR","MEAN_MOTION":"15.06384449"},{"TLE_LINE2":"2 47906  52.9977  16.5816 0000830  95.1791 140.8282 15.76736453  1303","TLE_LINE1":"1 47906U 21021AY  23106.91667824 -.00042556  00000-0 -25718-3 0  9997","SEMIMAJOR_AXIS":"6717.831","BSTAR":"-0.00025718000000","GP_ID":"230196143","EPHEMERIS_TYPE":"0","ARG_OF_PERICENTER":"95.1791","TIME_SYSTEM":"UTC","OBJECT_ID":"2021-021AY","MEAN_ANOMALY":"140.8282","PERIOD":"91.328","EPOCH":"2023-04-16T22:00:00.999936","ECCENTRICITY":"0.00008300","OBJECT_TYPE":"PAYLOAD","PERIAPSIS":"339.139","CENTER_NAME":"EARTH","FILE":"3888799","ELEMENT_SET_NO":"999","RCS_SIZE":"LARGE","MEAN_MOTION_DDOT":"0.0000000000000","INCLINATION":"52.9977","DECAY_DATE":null,"COUNTRY_CODE":"US","OBJECT_NAME":"STARLINK-2366","MEAN_ELEMENT_THEORY":"SGP4","REV_AT_EPOCH":"130","NORAD_CAT_ID":"47906","REF_FRAME":"TEME","RA_OF_ASC_NODE":"16.5816","CLASSIFICATION_TYPE":"U","LAUNCH_DATE":"2021-03-14","MEAN_MOTION_DOT":"-0.00042556","APOAPSIS":"340.254","SITE":"AFETR","MEAN_MOTION":"15.76736453"},{"NORAD_CAT_ID":"47907","REV_AT_EPOCH":"11658","MEAN_ELEMENT_THEORY":"SGP4","RA_OF_ASC_NODE":"350.0907","REF_FRAME":"TEME","DECAY_DATE":null,"COUNTRY_CODE":"US","OBJECT_NAME":"STARLINK-2367","SITE":"AFETR","APOAPSIS":"547.633","MEAN_MOTION":"15.06376780","LAUNCH_DATE":"2021-03-14","CLASSIFICATION_TYPE":"U","MEAN_MOTION_DOT":"0.00021897","BSTAR":"0.00148530000000","SEMIMAJOR_AXIS":"6925.420","GP_ID":"230196390","TLE_LINE1":"1 47907U 21021AZ  23106.92930546  .00021897  00000-0  14853-2 0  9993","TLE_LINE2":"2 47907  53.0552 350.0907 0000503 110.5557 249.5486 15.06376780116587","RCS_SIZE":"LARGE","ELEMENT_SET_NO":"999","CENTER_NAME":"EARTH","FILE":"3888799","PERIAPSIS":"546.936","OBJECT_TYPE":"PAYLOAD","MEAN_MOTION_DDOT":"0.0000000000000","INCLINATION":"53.0552","ARG_OF_PERICENTER":"110.5557","TIME_SYSTEM":"UTC","EPHEMERIS_TYPE":"0","MEAN_ANOMALY":"249.5486","PERIOD":"95.594","ECCENTRICITY":"0.00005030","EPOCH":"2023-04-16T22:18:11.991744","OBJECT_ID":"2021-021AZ"},{"PERIOD":"95.593","EPOCH":"2023-04-16T20:53:16.911168","MEAN_ANOMALY":"293.1814","ECCENTRICITY":"0.00012020","OBJECT_ID":"2021-021BA","TIME_SYSTEM":"UTC","ARG_OF_PERICENTER":"66.9301","EPHEMERIS_TYPE":"0","MEAN_MOTION_DDOT":"0.0000000000000","INCLINATION":"53.0552","CENTER_NAME":"EARTH","FILE":"3888799","ELEMENT_SET_NO":"999","RCS_SIZE":"LARGE","OBJECT_TYPE":"PAYLOAD","PERIAPSIS":"546.424","TLE_LINE1":"1 47908U 21021BA  23106.87033462  .00022944  00000-0  15548-2 0  9995","TLE_LINE2":"2 47908  53.0552 350.3534 0001202  66.9301 293.1814 15.06386028116604","GP_ID":"230197645","BSTAR":"0.00155480000000","SEMIMAJOR_AXIS":"6925.391","MEAN_MOTION_DOT":"0.00022944","LAUNCH_DATE":"2021-03-14","CLASSIFICATION_TYPE":"U","MEAN_MOTION":"15.06386028","SITE":"AFETR","APOAPSIS":"548.089","OBJECT_NAME":"STARLINK-2368","COUNTRY_CODE":"US","DECAY_DATE":null,"RA_OF_ASC_NODE":"350.3534","REF_FRAME":"TEME","NORAD_CAT_ID":"47908","REV_AT_EPOCH":"11660","MEAN_ELEMENT_THEORY":"SGP4"},{"GP_ID":"230197356","BSTAR":"0.00072070000000","SEMIMAJOR_AXIS":"6925.460","TLE_LINE1":"1 47909U 21021BB  23106.88599422  .00010459  00000-0  72070-3 0  9992","TLE_LINE2":"2 47909  53.0557 340.2839 0000454  76.2467 283.8572 15.06363676116916","INCLINATION":"53.0557","MEAN_MOTION_DDOT":"0.0000000000000","FILE":"3888799","CENTER_NAME":"EARTH","ELEMENT_SET_NO":"999","RCS_SIZE":"LARGE","PERIAPSIS":"547.010","OBJECT_TYPE":"PAYLOAD","MEAN_ANOMALY":"283.8572","PERIOD":"95.594","EPOCH":"2023-04-16T21:15:49.900608","ECCENTRICITY":"0.00004540","OBJECT_ID":"2021-021BB","TIME_SYSTEM":"UTC","ARG_OF_PERICENTER":"76.2467","EPHEMERIS_TYPE":"0","RA_OF_ASC_NODE":"340.2839","REF_FRAME":"TEME","NORAD_CAT_ID":"47909","REV_AT_EPOCH":"11691","MEAN_ELEMENT_THEORY":"SGP4","OBJECT_NAME":"STARLINK-2369","COUNTRY_CODE":"US","DECAY_DATE":null,"MEAN_MOTION":"15.06363676","SITE":"AFETR","APOAPSIS":"547.639","MEAN_MOTION_DOT":"0.00010459","LAUNCH_DATE":"2021-03-14","CLASSIFICATION_TYPE":"U"},{"MEAN_MOTION":"15.06363002","APOAPSIS":"548.076","SITE":"AFETR","MEAN_MOTION_DOT":"0.00018329","CLASSIFICATION_TYPE":"U","LAUNCH_DATE":"2021-03-14","REF_FRAME":"TEME","RA_OF_ASC_NODE":"340.1224","MEAN_ELEMENT_THEORY":"SGP4","REV_AT_EPOCH":"11677","NORAD_CAT_ID":"47910","COUNTRY_CODE":"US","OBJECT_NAME":"STARLINK-2370","DECAY_DATE":null,"INCLINATION":"53.0553","MEAN_MOTION_DDOT":"0.0000000000000","OBJECT_TYPE":"PAYLOAD","PERIAPSIS":"546.578","ELEMENT_SET_NO":"999","RCS_SIZE":"LARGE","FILE":"3888799","CENTER_NAME":"EARTH","OBJECT_ID":"2021-021BC","ECCENTRICITY":"0.00010820","PERIOD":"95.594","MEAN_ANOMALY":"312.1556","EPOCH":"2023-04-16T22:07:32.922912","EPHEMERIS_TYPE":"0","TIME_SYSTEM":"UTC","ARG_OF_PERICENTER":"47.9525","GP_ID":"230196644","SEMIMAJOR_AXIS":"6925.462","BSTAR":"0.00124740000000","TLE_LINE2":"2 47910  53.0553 340.1224 0001082  47.9525 312.1556 15.06363002116774","TLE_LINE1":"1 47910U 21021BC  23106.92190883  .00018329  00000-0  12474-2 0  9992"},{"DECAY_DATE":null,"OBJECT_NAME":"STARLINK-2371","COUNTRY_CODE":"US","NORAD_CAT_ID":"47911","REV_AT_EPOCH":"11638","MEAN_ELEMENT_THEORY":"SGP4","RA_OF_ASC_NODE":"355.5875","REF_FRAME":"TEME","LAUNCH_DATE":"2021-03-14","CLASSIFICATION_TYPE":"U","MEAN_MOTION_DOT":"0.00023930","SITE":"AFETR","APOAPSIS":"547.999","MEAN_MOTION":"15.06397105","TLE_LINE1":"1 47911U 21021BD  23106.87173701  .00023930  00000-0  16201-2 0  9993","TLE_LINE2":"2 47911  53.0552 355.5875 0001121  72.5898 287.5214 15.06397105116381","BSTAR":"0.00162010000000","SEMIMAJOR_AXIS":"6925.357","GP_ID":"230196891","ARG_OF_PERICENTER":"72.5898","TIME_SYSTEM":"UTC","EPHEMERIS_TYPE":"0","ECCENTRICITY":"0.00011210","PERIOD":"95.592","MEAN_ANOMALY":"287.5214","EPOCH":"2023-04-16T20:55:18.077664","OBJECT_ID":"2021-021BD","RCS_SIZE":"LARGE","ELEMENT_SET_NO":"999","CENTER_NAME":"EARTH","FILE":"3888799","OBJECT_TYPE":"PAYLOAD","PERIAPSIS":"546.446","MEAN_MOTION_DDOT":"0.0000000000000","INCLINATION":"53.0552"}];
